KUIPER-00016            
1 63732U 25088J   25257.18701083  .00000705  00000+0  12184-3 0  9993
2 63732  51.8995 172.0855 0010639 201.5377 158.5139 14.79906426 21195
KUIPER-00018            
1 63733U 25088K   25257.25002315 -.00013593  00000+0 -15071-2 0  9992
2 63733  51.8933 160.0719 0012926 232.1329  13.6460 14.86188955  5470
KUIPER-00019            
1 63734U 25088L   25257.25002315 -.00020245  00000+0 -24443-2 0  9998
2 63734  51.8957 159.2544 0010404 258.8231  28.4175 14.82999984  5340
KUIPER-00020            
1 63735U 25088M   25256.92208286  .00000956  00000+0  15515-3 0  9993
2 63735  51.8999 164.6872 0007563 211.3342 148.7171 14.79776240 21489
KUIPER-00021            
1 63736U 25088N   25257.26209683  .00001194  00000+0  18583-3 0  9997
2 63736  51.8984 164.2278 0006291 214.0302 146.0258 14.79896751 21356
KUIPER-00023            
1 63737U 25088P   25257.12660156 -.00006295  00000+0 -79568-3 0  9998
2 63737  51.9009 166.2977 0010425 228.2370 131.7702 14.79969354 21614
KUIPER-00024            
1 63738U 25088Q   25257.25002315 -.00056220  00000+0 -44417-2 0  9997
2 63738  51.8882 153.8528 0001837 186.4876 131.7320 15.00377575  4452
KUIPER-00025            
1 63739U 25088R   25257.12988359  .00000914  00000+0  14919-3 0  9997
2 63739  51.9013 162.3424 0008931 213.6172 146.4225 14.79911665 21651
